{"type": "FeatureCollection", "features": [ {"type": "Feature", "properties": {"norad_id": 32384, "name": "GPS BIIRM-5 (PRN 29)", "group": "gps-ops", "lat": -13.735949753114806, "lon": 111.82026285842372, "alt_km": 20111.945417450563, "timestamp": "2025-12-02T08:59:32.972939+00:00", "meta": {"OBJECT_NAME": "GPS BIIRM-5 (PRN 29)", "OBJECT_ID": "2007-062A", "EPOCH": "2025-11-30T01:46:38.777952", "MEAN_MOTION": 2.0057652, "ECCENTRICITY": 0.00321996, "INCLINATION": 55.1935, "RA_OF_ASC_NODE": 282.1541, "ARG_OF_PERICENTER": 162.9568, "MEAN_ANOMALY": 172.309, "EPHEMERIS_TYPE": 0, "CLASSIFICATION_TYPE": "U", "NORAD_CAT_ID": 32384, "ELEMENT_SET_NO": 999, "REV_AT_EPOCH": 13151, "BSTAR": 0, "MEAN_MOTION_DOT": -3.9e-07, "MEAN_MOTION_DDOT": 0}, "tle": {"line1": "1 32384U 07062A   25334.07405993 -.00000039  00000+0  00000+0 0  9990", "line2": "2 32384  55.1935 282.1541 0032199 162.9568 172.3090  2.00576520131514"}}, "geometry": {"type": "Point", "coordinates": [111.82026285842372, -13.735949753114806]}}, {"type": "Feature", "properties": {"norad_id": 32711, "name": "GPS BIIRM-6 (PRN 07)", "group": "gps-ops", "lat": 45.13726845057196, "lon": -68.12240496668714, "alt_km": 20481.13470018531, "timestamp": "2025-12-02T08:59:32.972951+00:00", "meta": {"OBJECT_NAME": "GPS BIIRM-6 (PRN 07)", "OBJECT_ID": "2008-012A", "EPOCH": "2025-12-01T16:55:34.250592", "MEAN_MOTION": 2.00564991, "ECCENTRICITY": 0.0202013, "INCLINATION": 54.4753, "RA_OF_ASC_NODE": 157.8135, "ARG_OF_PERICENTER": 244.8275, "MEAN_ANOMALY": 113.1101, "EPHEMERIS_TYPE": 0, "CLASSIFICATION_TYPE": "U", "NORAD_CAT_ID": 32711, "ELEMENT_SET_NO": 999, "REV_AT_EPOCH": 12979, "BSTAR": 0, "MEAN_MOTION_DOT": 1.24e-06, "MEAN_MOTION_DDOT": 0}, "tle": {"line1": "1 32711U 08012A   25335.70525753  .00000124  00000+0  00000+0 0  9992", "line2": "2 32711  54.4753 157.8135 0202013 244.8275 113.1101  2.00564991129796"}}, "geometry": {"type": "Point", "coordinates": [-68.12240496668714, 45.13726845057196]}}, {"type": "Feature", "properties": {"norad_id": 35752, "name": "GPS BIIRM-8 (PRN 05)", "group": "gps-ops", "lat": 30.832866132825384, "lon": -168.44378127772364, "alt_km": 20108.15377671584, "timestamp": "2025-12-02T08:59:32.972962+00:00", "meta": {"OBJECT_NAME": "GPS BIIRM-8 (PRN 05)", "OBJECT_ID": "2009-043A", "EPOCH": "2025-12-01T04:42:32.815296", "MEAN_MOTION": 2.00566259, "ECCENTRICITY": 0.00521242, "INCLINATION": 56.0822, "RA_OF_ASC_NODE": 35.2386, "ARG_OF_PERICENTER": 82.0997, "MEAN_ANOMALY": 288.3285, "EPHEMERIS_TYPE": 0, "CLASSIFICATION_TYPE": "U", "NORAD_CAT_ID": 35752, "ELEMENT_SET_NO": 999, "REV_AT_EPOCH": 11939, "BSTAR": 0, "MEAN_MOTION_DOT": -6.6e-07, "MEAN_MOTION_DDOT": 0}, "tle": {"line1": "1 35752U 09043A   25335.19621314 -.00000066  00000+0  00000+0 0  9994", "line2": "2 35752  56.0822  35.2386 0052124  82.0997 288.3285  2.00566259119397"}}, "geometry": {"type": "Point", "coordinates": [-168.44378127772364, 30.832866132825384]}}, {"type": "Feature", "properties": {"norad_id": 36585, "name": "GPS BIIF-1  (PRN 25)", "group": "gps-ops", "lat": -53.05102994077261, "lon": 109.2176473446406, "alt_km": 20511.346801066244, "timestamp": "2025-12-02T08:59:32.972973+00:00", "meta": {"OBJECT_NAME": "GPS BIIF-1  (PRN 25)", "OBJECT_ID": "2010-022A", "EPOCH": "2025-12-01T06:27:39.458016", "MEAN_MOTION": 2.00552516, "ECCENTRICITY": 0.0125618, "INCLINATION": 54.3025, "RA_OF_ASC_NODE": 216.5366, "ARG_OF_PERICENTER": 64.9463, "MEAN_ANOMALY": 117.0243, "EPHEMERIS_TYPE": 0, "CLASSIFICATION_TYPE": "U", "NORAD_CAT_ID": 36585, "ELEMENT_SET_NO": 999, "REV_AT_EPOCH": 11362, "BSTAR": 0, "MEAN_MOTION_DOT": 6e-07, "MEAN_MOTION_DDOT": 0}, "tle": {"line1": "1 36585U 10022A   25335.26920669  .00000060  00000+0  00000+0 0  9994", "line2": "2 36585  54.3025 216.5366 0125618  64.9463 117.0243  2.00552516113629"}}, "geometry": {"type": "Point", "coordinates": [109.2176473446406, -53.05102994077261]}}, {"type": "Feature", "properties": {"norad_id": 38833, "name": "GPS BIIF-3  (PRN 24)", "group": "gps-ops", "lat": -3.8280046390713918, "lon": 148.82079672620605, "alt_km": 20005.98175496518, "timestamp": "2025-12-02T08:59:32.972984+00:00", "meta": {"OBJECT_NAME": "GPS BIIF-3  (PRN 24)", "OBJECT_ID": "2012-053A", "EPOCH": "2025-12-01T21:10:58.228032", "MEAN_MOTION": 2.00564835, "ECCENTRICITY": 0.0175482, "INCLINATION": 53.5559, "RA_OF_ASC_NODE": 151.6834, "ARG_OF_PERICENTER": 63.8436, "MEAN_ANOMALY": 297.9871, "EPHEMERIS_TYPE": 0, "CLASSIFICATION_TYPE": "U", "NORAD_CAT_ID": 38833, "ELEMENT_SET_NO": 999, "REV_AT_EPOCH": 9548, "BSTAR": 0, "MEAN_MOTION_DOT": 1.16e-06, "MEAN_MOTION_DDOT": 0}, "tle": {"line1": "1 38833U 12053A   25335.88261838  .00000116  00000+0  00000+0 0  9994", "line2": "2 38833  53.5559 151.6834 0175482  63.8436 297.9871  2.00564835 95486"}}, "geometry": {"type": "Point", "coordinates": [148.82079672620605, -3.8280046390713918]}}, {"type": "Feature", "properties": {"norad_id": 39166, "name": "GPS BIIF-4  (PRN 27)", "group": "gps-ops", "lat": 54.24306040693217, "lon": 17.178583309161695, "alt_km": 19926.903644057806, "timestamp": "2025-12-02T08:59:32.972995+00:00", "meta": {"OBJECT_NAME": "GPS BIIF-4  (PRN 27)", "OBJECT_ID": "2013-023A", "EPOCH": "2025-12-01T05:56:59.182080", "MEAN_MOTION": 2.00565069, "ECCENTRICITY": 0.0137184, "INCLINATION": 54.6621, "RA_OF_ASC_NODE": 277.0355, "ARG_OF_PERICENTER": 48.4883, "MEAN_ANOMALY": 312.6776, "EPHEMERIS_TYPE": 0, "CLASSIFICATION_TYPE": "U", "NORAD_CAT_ID": 39166, "ELEMENT_SET_NO": 999, "REV_AT_EPOCH": 9191, "BSTAR": 0, "MEAN_MOTION_DOT": -4e-07, "MEAN_MOTION_DDOT": 0}, "tle": {"line1": "1 39166U 13023A   25335.24790720 -.00000040  00000+0  00000+0 0  9996", "line2": "2 39166  54.6621 277.0355 0137184  48.4883 312.6776  2.00565069 91914"}}, "geometry": {"type": "Point", "coordinates": [17.178583309161695, 54.24306040693217]}}, {"type": "Feature", "properties": {"norad_id": 39533, "name": "GPS BIIF-5  (PRN 30)", "group": "gps-ops", "lat": 53.15021306162895, "lon": -102.32376724225028, "alt_km": 20309.597866573153, "timestamp": "2025-12-02T08:59:32.973006+00:00", "meta": {"OBJECT_NAME": "GPS BIIF-5  (PRN 30)", "OBJECT_ID": "2014-008A", "EPOCH": "2025-12-01T17:47:12.743808", "MEAN_MOTION": 2.00573724, "ECCENTRICITY": 0.0078939, "INCLINATION": 53.6295, "RA_OF_ASC_NODE": 157.3734, "ARG_OF_PERICENTER": 226.3523, "MEAN_ANOMALY": 133.0365, "EPHEMERIS_TYPE": 0, "CLASSIFICATION_TYPE": "U", "NORAD_CAT_ID": 39533, "ELEMENT_SET_NO": 999, "REV_AT_EPOCH": 8572, "BSTAR": 0, "MEAN_MOTION_DOT": 1.22e-06, "MEAN_MOTION_DDOT": 0}, "tle": {"line1": "1 39533U 14008A   25335.74111972  .00000122  00000+0  00000+0 0  9999", "line2": "2 39533  53.6295 157.3734 0078939 226.3523 133.0365  2.00573724 85727"}}, "geometry": {"type": "Point", "coordinates": [-102.32376724225028, 53.15021306162895]}}, {"type": "Feature", "properties": {"norad_id": 39741, "name": "GPS BIIF-6  (PRN 06)", "group": "gps-ops", "lat": -52.90197730737267, "lon": -140.01329198842868, "alt_km": 20144.391373467744, "timestamp": "2025-12-02T08:59:32.973017+00:00", "meta": {"OBJECT_NAME": "GPS BIIF-6  (PRN 06)", "OBJECT_ID": "2014-026A", "EPOCH": "2025-12-02T00:33:52.471008", "MEAN_MOTION": 2.00561967, "ECCENTRICITY": 0.0038874, "INCLINATION": 56.5877, "RA_OF_ASC_NODE": 339.1935, "ARG_OF_PERICENTER": 318.1074, "MEAN_ANOMALY": 41.6257, "EPHEMERIS_TYPE": 0, "CLASSIFICATION_TYPE": "U", "NORAD_CAT_ID": 39741, "ELEMENT_SET_NO": 999, "REV_AT_EPOCH": 8458, "BSTAR": 0, "MEAN_MOTION_DOT": -5.7e-07, "MEAN_MOTION_DDOT": 0}, "tle": {"line1": "1 39741U 14026A   25336.02352397 -.00000057  00000+0  00000+0 0  9998", "line2": "2 39741  56.5877 339.1935 0038874 318.1074  41.6257  2.00561967 84587"}}, "geometry": {"type": "Point", "coordinates": [-140.01329198842868, -52.90197730737267]}}, {"type": "Feature", "properties": {"norad_id": 40105, "name": "GPS BIIF-7  (PRN 09)", "group": "gps-ops", "lat": -8.73064696808992, "lon": -77.5818113577517, "alt_km": 20154.072379153975, "timestamp": "2025-12-02T08:59:32.973029+00:00", "meta": {"OBJECT_NAME": "GPS BIIF-7  (PRN 09)", "OBJECT_ID": "2014-045A", "EPOCH": "2025-12-01T02:44:59.047584", "MEAN_MOTION": 2.00571745, "ECCENTRICITY": 0.0032948, "INCLINATION": 55.2216, "RA_OF_ASC_NODE": 96.3629, "ARG_OF_PERICENTER": 119.5842, "MEAN_ANOMALY": 240.7262, "EPHEMERIS_TYPE": 0, "CLASSIFICATION_TYPE": "U", "NORAD_CAT_ID": 40105, "ELEMENT_SET_NO": 999, "REV_AT_EPOCH": 8210, "BSTAR": 0, "MEAN_MOTION_DOT": 1.8e-07, "MEAN_MOTION_DDOT": 0}, "tle": {"line1": "1 40105U 14045A   25335.11457231  .00000018  00000+0  00000+0 0  9993", "line2": "2 40105  55.2216  96.3629 0032948 119.5842 240.7262  2.00571745 82109"}}, "geometry": {"type": "Point", "coordinates": [-77.5818113577517, -8.73064696808992]}}, {"type": "Feature", "properties": {"norad_id": 40294, "name": "GPS BIIF-8  (PRN 03)", "group": "gps-ops", "lat": -55.84705345863167, "lon": -35.64728288226831, "alt_km": 20328.687010497928, "timestamp": "2025-12-02T08:59:32.973040+00:00", "meta": {"OBJECT_NAME": "GPS BIIF-8  (PRN 03)", "OBJECT_ID": "2014-068A", "EPOCH": "2025-12-01T11:46:15.009600", "MEAN_MOTION": 2.00563998, "ECCENTRICITY": 0.0060828, "INCLINATION": 56.849, "RA_OF_ASC_NODE": 38.5813, "ARG_OF_PERICENTER": 69.4379, "MEAN_ANOMALY": 291.2622, "EPHEMERIS_TYPE": 0, "CLASSIFICATION_TYPE": "U", "NORAD_CAT_ID": 40294, "ELEMENT_SET_NO": 999, "REV_AT_EPOCH": 8124, "BSTAR": 0, "MEAN_MOTION_DOT": -6.4e-07, "MEAN_MOTION_DDOT": 0}, "tle": {"line1": "1 40294U 14068A   25335.49045150 -.00000064  00000+0  00000+0 0  9993", "line2": "2 40294  56.8490  38.5813 0060828  69.4379 291.2622  2.00563998 81244"}}, "geometry": {"type": "Point", "coordinates": [-35.64728288226831, -55.84705345863167]}}]}